[{"OBJECT_NAME":"TEVEL2-4","OBJECT_ID":"2025-052D","EPOCH":"2026-03-09T16:39:37.129536","MEAN_MOTION":15.30925813,"ECCENTRICITY":0.0004733,"INCLINATION":97.4009,"RA_OF_ASC_NODE":325.1237,"ARG_OF_PERICENTER":95.3468,"MEAN_ANOMALY":264.8313,"EPHEMERIS_TYPE":0,"CLASSIFICATION_TYPE":"U","NORAD_CAT_ID":63213,"ELEMENT_SET_NO":999,"REV_AT_EPOCH":5487,"BSTAR":0.00070362503,"MEAN_MOTION_DOT":0.0002099,"MEAN_MOTION_DDOT":0},{"OBJECT_NAME":"STARLINK-35932","OBJECT_ID":"2025-265L","EPOCH":"2026-03-08T15:20:09.391776","MEAN_MOTION":15.27602763,"ECCENTRICITY":3.232e-5,"INCLINATION":42.9979,"RA_OF_ASC_NODE":283.7947,"ARG_OF_PERICENTER":336.752,"MEAN_ANOMALY":23.3317,"EPHEMERIS_TYPE":0,"CLASSIFICATION_TYPE":"U","NORAD_CAT_ID":66526,"ELEMENT_SET_NO":999,"REV_AT_EPOCH":1695,"BSTAR":0.001494568,"MEAN_MOTION_DOT":0.00041123,"MEAN_MOTION_DDOT":0}]
